LUCH-5A
1 37951U 11074B   26104.19188940 -.00000038  00000+0  00000+0 0  9991
2 37951   8.5911  74.7328 0002810 291.8091  71.8242  1.00271641 52411
LUCH-5B
1 38977U 12061A   26104.08433563 -.00000126  00000+0  00000+0 0  9997
2 38977  10.3460  50.5023 0001847 220.5136 305.3426  1.00273190 48967
SKYSAT-A
1 39418U 13066C   26104.09646553  .00001964  00000+0  11549-3 0  9994
2 39418  97.3883 155.5316 0021915 171.9015 188.2574 15.12607669678798
LUCH-5V
1 39727U 14023A   26103.96371230 -.00000259  00000+0  00000+0 0  9996
2 39727   4.9751  70.3656 0002883 332.4693 240.8775  1.00266635 43711
SKYSAT-B
1 40072U 14037D   26104.30706775  .00000879  00000+0  10285-3 0  9998
2 40072  98.3784  59.6615 0006769 118.6284 241.5612 14.87858646636467
SKYSAT-C1
1 41601U 16040C   26104.36192999  .00004909  00000+0  14564-3 0  9998
2 41601  96.9639 139.5697 0000989 204.3459 155.7739 15.35245869548078
SKYSAT-C2
1 41773U 16058D   26104.44146954  .00006597  00000+0  16372-3 0  9990
2 41773  97.0233 128.9857 0001113 287.0375  73.0750 15.40665554535237
SKYSAT-C3
1 41774U 16058E   26104.53694170  .00011439  00000+0  20582-3 0  9998
2 41774  96.9120 137.9167 0002437 108.4558 251.6960 15.49974709536247
SKYSAT-C11
1 42987U 17068A   26104.65714814  .00015952  00000+0  24215-3 0  9999
2 42987  97.4262 250.9161 0001040 155.4152 204.7152 15.54678792473362
SKYSAT-C10
1 42988U 17068B   26104.62958533  .00005363  00000+0  16797-3 0  9996
2 42988  97.4399 240.9487 0001268 115.4234 244.7140 15.33528165472616
SKYSAT-C12
1 43797U 18099AR  26104.54550666  .00009513  00000+0  19050-3 0  9992
2 43797  96.9325 130.4188 0005035  50.7696 309.4001 15.46927391412019
SKYSAT-C13
1 43802U 18099AW  26104.37432179  .00086695  00000+0  37433-3 0  9999
2 43802  96.9315 152.2640 0004744 117.8698 242.3054 15.84704499412807
LUCH-5X (OLYMP-K 2)
1 55841U 23031A   26104.75361080  .00000039  00000+0  00000+0 0  9995
2 55841   0.0172  86.7993 0001480 100.5514 348.8491  1.00268660 11307
CAPELLA-19 (ACADIA-9)
1 67384U 26004X   26104.45919205  .00002497  00000+0  28720-3 0  9991
2 67384  97.8004 103.9967 0001522  95.2191 264.9198 14.86653325 13804
CAPELLA-18 (ACADIA-8)
1 67385U 26004Y   26104.61061024 -.00001536  00000+0 -16724-3 0  9993
2 67385  97.8030 104.2724 0001359  91.5322 268.6050 14.86608607 13836
