[ {"OBJECT_NAME": "CAPELLA-19 (ACADIA-9)", "NORAD_CAT_ID": 67384, "MEAN_MOTION": 14.86653325, "ECCENTRICITY": 0.0001522, "INCLINATION": 97.8004, "RA_OF_ASC_NODE": 103.9967, "ARG_OF_PERICENTER": 95.2191, "MEAN_ANOMALY": 264.9198, "BSTAR": 0.00028720000000000004, "EPOCH": "2026-04-14T11:01:14"}, {"OBJECT_NAME": "CAPELLA-18 (ACADIA-8)", "NORAD_CAT_ID": 67385, "MEAN_MOTION": 14.86608607, "ECCENTRICITY": 0.0001359, "INCLINATION": 97.803, "RA_OF_ASC_NODE": 104.2724, "ARG_OF_PERICENTER": 91.5322, "MEAN_ANOMALY": 268.605, "BSTAR": -0.00016724, "EPOCH": "2026-04-14T14:39:16"}, {"OBJECT_NAME": "LUCH 5A (SDCM/PRN 140)", "NORAD_CAT_ID": 37951, "MEAN_MOTION": 1.00271641, "ECCENTRICITY": 0.000281, "INCLINATION": 8.5911, "RA_OF_ASC_NODE": 74.7328, "ARG_OF_PERICENTER": 291.8091, "MEAN_ANOMALY": 71.8242, "BSTAR": 0.0, "EPOCH": "2026-04-14T04:36:19"}, {"OBJECT_NAME": "LUCH 5B (SDCM/PRN 125)", "NORAD_CAT_ID": 38977, "MEAN_MOTION": 1.0027319, "ECCENTRICITY": 0.0001847, "INCLINATION": 10.346, "RA_OF_ASC_NODE": 50.5023, "ARG_OF_PERICENTER": 220.5136, "MEAN_ANOMALY": 305.3426, "BSTAR": 0.0, "EPOCH": "2026-04-14T02:01:26"}, {"OBJECT_NAME": "LUCH 5V (SDCM/PRN 141)", "NORAD_CAT_ID": 39727, "MEAN_MOTION": 1.00266635, "ECCENTRICITY": 0.0002883, "INCLINATION": 4.9751, "RA_OF_ASC_NODE": 70.3656, "ARG_OF_PERICENTER": 332.4693, "MEAN_ANOMALY": 240.8775, "BSTAR": 0.0, "EPOCH": "2026-04-13T23:07:44"}, {"OBJECT_NAME": "LUCH-5X (OLYMP-K 2)", "NORAD_CAT_ID": 55841, "MEAN_MOTION": 1.0026866, "ECCENTRICITY": 0.000148, "INCLINATION": 0.0172, "RA_OF_ASC_NODE": 86.7993, "ARG_OF_PERICENTER": 100.5514, "MEAN_ANOMALY": 348.8491, "BSTAR": 0.0, "EPOCH": "2026-04-14T18:05:11"}, {"OBJECT_NAME": "SKYSAT-A", "NORAD_CAT_ID": 39418, "MEAN_MOTION": 15.12607669, "ECCENTRICITY": 0.0021915, "INCLINATION": 97.3883, "RA_OF_ASC_NODE": 155.5316, "ARG_OF_PERICENTER": 171.9015, "MEAN_ANOMALY": 188.2574, "BSTAR": 0.00011549, "EPOCH": "2026-04-14T02:18:54"}, {"OBJECT_NAME": "SKYSAT-C10", "NORAD_CAT_ID": 42988, "MEAN_MOTION": 15.33528165, "ECCENTRICITY": 0.0001268, "INCLINATION": 97.4399, "RA_OF_ASC_NODE": 240.9487, "ARG_OF_PERICENTER": 115.4234, "MEAN_ANOMALY": 244.714, "BSTAR": 0.00016797, "EPOCH": "2026-04-14T15:06:36"}, {"OBJECT_NAME": "SKYSAT-C12", "NORAD_CAT_ID": 43797, "MEAN_MOTION": 15.46927391, "ECCENTRICITY": 0.0005035, "INCLINATION": 96.9325, "RA_OF_ASC_NODE": 130.4188, "ARG_OF_PERICENTER": 50.7696, "MEAN_ANOMALY": 309.4001, "BSTAR": 0.0001905, "EPOCH": "2026-04-14T13:05:31"}, {"OBJECT_NAME": "SKYSAT-C3", "NORAD_CAT_ID": 41774, "MEAN_MOTION": 15.49974709, "ECCENTRICITY": 0.0002437, "INCLINATION": 96.912, "RA_OF_ASC_NODE": 137.9167, "ARG_OF_PERICENTER": 108.4558, "MEAN_ANOMALY": 251.696, "BSTAR": 0.00020582, "EPOCH": "2026-04-14T12:53:11"}, {"OBJECT_NAME": "SKYSAT-C1", "NORAD_CAT_ID": 41601, "MEAN_MOTION": 15.35245869, "ECCENTRICITY": 9.89e-05, "INCLINATION": 96.9639, "RA_OF_ASC_NODE": 139.5697, "ARG_OF_PERICENTER": 204.3459, "MEAN_ANOMALY": 155.7739, "BSTAR": 0.00014564, "EPOCH": "2026-04-14T08:41:10"}, {"OBJECT_NAME": "SKYSAT-C2", "NORAD_CAT_ID": 41773, "MEAN_MOTION": 15.40665554, "ECCENTRICITY": 0.0001113, "INCLINATION": 97.0233, "RA_OF_ASC_NODE": 128.9857, "ARG_OF_PERICENTER": 287.0375, "MEAN_ANOMALY": 73.075, "BSTAR": 0.00016372, "EPOCH": "2026-04-14T10:35:42"}, {"OBJECT_NAME": "SKYSAT-B", "NORAD_CAT_ID": 40072, "MEAN_MOTION": 14.87858646, "ECCENTRICITY": 0.0006769, "INCLINATION": 98.3784, "RA_OF_ASC_NODE": 59.6615, "ARG_OF_PERICENTER": 118.6284, "MEAN_ANOMALY": 241.5612, "BSTAR": 0.00010284999999999999, "EPOCH": "2026-04-14T07:22:10"}, {"OBJECT_NAME": "SKYSAT-C11", "NORAD_CAT_ID": 42987, "MEAN_MOTION": 15.54678792, "ECCENTRICITY": 0.000104, "INCLINATION": 97.4262, "RA_OF_ASC_NODE": 250.9161, "ARG_OF_PERICENTER": 155.4152, "MEAN_ANOMALY": 204.7152, "BSTAR": 0.00024215, "EPOCH": "2026-04-14T15:46:17"}, {"OBJECT_NAME": "SKYSAT-C13", "NORAD_CAT_ID": 43802, "MEAN_MOTION": 15.84704499, "ECCENTRICITY": 0.0004744, "INCLINATION": 96.9315, "RA_OF_ASC_NODE": 152.264, "ARG_OF_PERICENTER": 117.8698, "MEAN_ANOMALY": 242.3054, "BSTAR": 0.00037433000000000003, "EPOCH": "2026-04-14T08:59:01"}]